LEMUR-1                 
1 40044U 14033AL  26155.76286309  .00003143  00000+0  36498-3 0  9996
2 40044  97.7868 305.8457 0049656 118.2584 242.3656 14.85193790643626
LEMUR-2-GREENBERG       
1 42837U 17042N   26155.53919397  .00017438  00000+0  58482-3 0  9995
2 42837  97.3815 336.2266 0009695  56.8550 303.3620 15.30914916486458
LEMUR-2-ANDIS           
1 42838U 17042P   26155.07525170  .00023518  00000+0  70843-3 0  9998
2 42838  97.3677 335.9049 0009265  58.5132 301.7015 15.34295092486448
LEMUR-2-MONSON          
1 42839U 17042Q   26155.06224443  .00016668  00000+0  61840-3 0  9992
2 42839  97.4073 335.7437 0007407  50.3120 309.8772 15.27642419486161
LEMUR-2-FURIAUS         
1 42840U 17042R   26155.06610548  .00019261  00000+0  66840-3 0  9996
2 42840  97.3769 333.7410 0008623 109.3571 250.8603 15.29794594486206
LEMUR-2-PETERG          
1 42841U 17042S   26155.31226376  .00028037  00000+0  87019-3 0  9999
2 42841  97.3988 340.3274 0004272  43.6943 316.4637 15.33341515486461
LEMUR-2-DEMBITZ         
1 42842U 17042T   26155.74057490  .00017422  00000+0  60308-3 0  9994
2 42842  97.3822 337.4241 0007715  69.0521 291.1544 15.29903722486442
LEMUR-2-ZACHARY         
1 42845U 17042W   26155.59886644  .00044991  00000+0  82559-3 0  9994
2 42845  97.3612 346.9776 0003740  74.8050 285.3614 15.49134625487258
LEMUR-2-KADI            
1 43184U 18014E   26155.00085063  .05670531  25233-5  13547-2 0  9994
2 43184  97.4308  86.5413 0010751 218.5886 141.4640 16.29437538459008
LEMUR-2-AMANDA-SVANTE   
1 48269U 21034B   26155.18006878  .00036252  00000+0  11185-2 0  9991
2 48269  97.5764 233.1304 0000868 273.8548  86.2594 15.33486404279060
LEMUR-2-SPECIAL-K       
1 48273U 21034F   26155.72710013  .00134550  00000+0  15811-2 0  9999
2 48273  97.5656 241.7175 0002667 238.8592 121.2404 15.60998084279742
LEMUR-2-EMBRIONOVIS     
1 56970U 23084AQ  26155.18425658  .00014838  00000+0  40876-3 0  9993
2 56970  97.6283 298.8891 0008690   9.7326 350.4085 15.37210087165684
LEMUR-2-DEVERILL-M-T    
1 57391U 23100F   26155.04002856  .00028179  00000+0  72838-3 0  9992
2 57391  99.4476 190.0097 0007506  90.1093 270.1006 15.39072057159226
LEMUR-2-BASS            
1 58259U 23174D   26155.23902847  .00018909  00000+0  43531-3 0  9995
2 58259  97.3845 239.7751 0006733 205.1334 154.9587 15.42649072143364
LEMUR-2-JK0903EM1407    
1 58336U 23174CJ  26155.24326317  .00028456  00000+0  49056-3 0  9990
2 58336  97.3910 245.3579 0005884 155.2357 204.9178 15.50993821143725
LEMUR-2-MJR092620       
1 58340U 23174CN  26155.72061435  .00021979  00000+0  47661-3 0  9998
2 58340  97.3973 245.5256 0006868 154.4028 205.7562 15.44399087143725
LEMUR-2-NIMBUS2000      
1 58899U 24022A   26155.14651264  .00020317  00000+0  51721-3 0  9998
2 58899  97.4115   4.9878 0009651 156.4051 203.7639 15.39561973130268
LEMUR-2-VALHALLA        
1 58900U 24022B   26155.14008384  .00018151  00000+0  46694-3 0  9996
2 58900  97.4114   4.9787 0010293 152.8565 207.3220 15.39258151130260
LEMUR-2-OBA-NI-JESU     
1 58902U 24022D   26155.14689709  .00757039  27408-3  13632-2 0  9999
2 58902  97.3761  19.2455 0004264 174.2396 185.8933 16.01665376131231
LEMUR-2-CAEL            
1 58903U 24022E   26155.09585221  .00019089  00000+0  47114-3 0  9992
2 58903  97.4097   5.8472 0008921 136.4150 223.7802 15.40526305130323
LEMUR-2-JOHNNYTRUONG    
1 59146U 24043BA  26153.71674366  .00041716  00000+0  52884-3 0  9993
2 59146  97.5373 304.5368 0004267 221.4985 138.5947 15.59343752125784
LEMUR-2-TOMATOKECHUP    
1 60471U 24149D   26155.92419553  .00012593  00000+0  36408-3 0  9998
2 60471  97.3797 237.9426 0000297 225.0802 135.0418 15.35767551100280
LEMUR-2-STELLA          
1 60533U 24149BT  26155.17398638  .00013309  00000+0  78866-3 0  9994
2 60533  97.6733 237.5749 0001850 101.9080 258.2357 15.11514040 98533
LEMUR-2-MARHISYAM       
1 60536U 24149BW  26155.74564769  .00012328  00000+0  74142-3 0  9993
2 60536  97.6879 238.5856 0003086 140.1867 219.9590 15.10994084 98608
LEMUR-2-AHMED-ASRAR     
1 60576U 24149DN  26155.72547517  .00014005  00000+0  80917-3 0  9998
2 60576  97.6996 240.6093 0002694  70.9875 289.1647 15.12416323 98689
LEMUR-2-LLOYD           
1 60577U 24149DP  26155.17895145  .00012597  00000+0  80048-3 0  9990
2 60577  97.6741 236.3033 0004120 176.5581 183.5677 15.08973273 98437
LEMUR-2-SQUIRRELCOMM    
1 60578U 24149DQ  26155.17558616  .00008183  00000+0  55029-3 0  9997
2 60578  97.6703 236.1288 0006698  97.2239 262.9750 15.06995230 98447
LEMUR-2-SIERRINI        
1 60579U 24149DR  26155.17042381  .00013440  00000+0  81519-3 0  9990
2 60579  97.6848 237.7090 0004723 205.8108 154.2887 15.10659884 98491
LEMUR-2-WILSON          
1 62694U 25009CP  26155.17848511  .00003207  00000+0  29759-3 0  9993
2 62694  97.7030 233.8721 0004952  85.9541 274.2245 14.95111131 75413
