OBJECT_NAME,OBJECT_ID,EPOCH,MEAN_MOTION,ECCENTRICITY,INCLINATION,RA_OF_ASC_NODE,ARG_OF_PERICENTER,MEAN_ANOMALY,EPHEMERIS_TYPE,CLASSIFICATION_TYPE,NORAD_CAT_ID,ELEMENT_SET_NO,REV_AT_EPOCH,BSTAR,MEAN_MOTION_DOT,MEAN_MOTION_DDOT
LEMUR-1,2014-033AL,2026-06-04T18:18:31.370976,14.85193790,.00496564,97.7868,305.8457,118.2584,242.3656,0,U,40044,999,64362,.364983E-3,.3143E-4,0
LEMUR-2-GREENBERG,2017-042N,2026-06-04T12:56:26.359008,15.30914916,.00096957,97.3815,336.2266,56.8550,303.3620,0,U,42837,999,48645,.58482163E-3,.17438E-3,0
LEMUR-2-ANDIS,2017-042P,2026-06-04T01:48:21.746880,15.34295092,.0009265,97.3677,335.9049,58.5132,301.7015,0,U,42838,999,48644,.70843E-3,.23518E-3,0
LEMUR-2-MONSON,2017-042Q,2026-06-04T01:29:37.918752,15.27642419,.00074076,97.4073,335.7437,50.3120,309.8772,0,U,42839,999,48616,.61840005E-3,.16668E-3,0
LEMUR-2-FURIAUS,2017-042R,2026-06-04T01:35:11.513472,15.29794594,.00086234,97.3769,333.7410,109.3571,250.8603,0,U,42840,999,48620,.66840387E-3,.19261E-3,0
LEMUR-2-PETERG,2017-042S,2026-06-04T07:29:39.588864,15.33341515,.00042722,97.3988,340.3274,43.6943,316.4637,0,U,42841,999,48646,.87019449E-3,.28037E-3,0
LEMUR-2-DEMBITZ,2017-042T,2026-06-04T17:46:25.671360,15.29903722,.00077151,97.3822,337.4241,69.0521,291.1544,0,U,42842,999,48644,.60307883E-3,.17422E-3,0
LEMUR-2-ZACHARY,2017-042W,2026-06-04T14:22:22.060416,15.49134625,.00037401,97.3612,346.9776,74.8050,285.3614,0,U,42845,999,48725,.82559316E-3,.44991E-3,0
LEMUR-2-KADI,2018-014E,2026-06-04T00:01:13.494432,16.29437538,.00107518,97.4308,86.5413,218.5886,141.4640,0,U,43184,999,45900,.13546809E-2,.5670531E-1,.2523326E-5
LEMUR-2-AMANDA-SVANTE,2021-034B,2026-06-04T04:19:17.942592,15.33486404,.00008684,97.5764,233.1304,273.8548,86.2594,0,U,48269,999,27906,.11184752E-2,.36252E-3,0
LEMUR-2-SPECIAL-K,2021-034F,2026-06-04T17:27:01.451232,15.60998084,.00026673,97.5656,241.7175,238.8592,121.2404,0,U,48273,999,27974,.15811407E-2,.13455E-2,0
LEMUR-2-EMBRIONOVIS,2023-084AQ,2026-06-04T04:25:19.768512,15.37210087,.00086903,97.6283,298.8891,9.7326,350.4085,0,U,56970,999,16568,.40876087E-3,.14838E-3,0
LEMUR-2-DEVERILL-M-T,2023-100F,2026-06-04T00:57:38.467584,15.39072057,.00075061,99.4476,190.0097,90.1093,270.1006,0,U,57391,999,15922,.72838068E-3,.28179E-3,0
LEMUR-2-BASS,2023-174D,2026-06-04T05:44:12.059808,15.42649072,.0006733,97.3845,239.7751,205.1334,154.9587,0,U,58259,999,14336,.43530868E-3,.18909E-3,0
LEMUR-2-JK0903EM1407,2023-174CJ,2026-06-04T05:50:17.937888,15.50993821,.0005884,97.3910,245.3579,155.2357,204.9178,0,U,58336,999,14372,.4905583E-3,.28456E-3,0
LEMUR-2-MJR092620,2023-174CN,2026-06-04T17:17:41.079840,15.44399087,.00068687,97.3973,245.5256,154.4028,205.7562,0,U,58340,999,14372,.47661455E-3,.21979E-3,0
LEMUR-2-NIMBUS2000,2024-022A,2026-06-04T03:30:58.692096,15.39561973,.00096515,97.4115,4.9878,156.4051,203.7639,0,U,58899,999,13026,.51721231E-3,.20317E-3,0
LEMUR-2-VALHALLA,2024-022B,2026-06-04T03:21:43.243776,15.39258151,.00102938,97.4114,4.9787,152.8565,207.3220,0,U,58900,999,13026,.46693738E-3,.18151E-3,0
LEMUR-2-OBA-NI-JESU,2024-022D,2026-06-04T03:31:31.908576,16.01665376,.00042646,97.3761,19.2455,174.2396,185.8933,0,U,58902,999,13123,.13631582E-2,.757039E-2,.27407753E-3
LEMUR-2-CAEL,2024-022E,2026-06-04T02:18:01.630944,15.40526305,.00089216,97.4097,5.8472,136.4150,223.7802,0,U,58903,999,13032,.47114031E-3,.19089E-3,0
LEMUR-2-JOHNNYTRUONG,2024-043BA,2026-06-02T17:12:06.652224,15.59343752,.00042672,97.5373,304.5368,221.4985,138.5947,0,U,59146,999,12578,.52884291E-3,.41716E-3,0
LEMUR-2-TOMATOKECHUP,2024-149D,2026-06-04T22:10:50.493792,15.35767551,.0000297,97.3797,237.9426,225.0802,135.0418,0,U,60471,999,10028,.36407564E-3,.12593E-3,0
LEMUR-2-STELLA,2024-149BT,2026-06-04T04:10:32.423232,15.11514040,.00018506,97.6733,237.5749,101.9080,258.2357,0,U,60533,999,9853,.78866035E-3,.13309E-3,0
LEMUR-2-MARHISYAM,2024-149BW,2026-06-04T17:53:43.960416,15.10994084,.00030866,97.6879,238.5856,140.1867,219.9590,0,U,60536,999,9860,.74142346E-3,.12328E-3,0
LEMUR-2-AHMED-ASRAR,2024-149DN,2026-06-04T17:24:41.054688,15.12416323,.00026942,97.6996,240.6093,70.9875,289.1647,0,U,60576,999,9868,.80917189E-3,.14005E-3,0
LEMUR-2-LLOYD,2024-149DP,2026-06-04T04:17:41.405280,15.08973273,.00041202,97.6741,236.3033,176.5581,183.5677,0,U,60577,999,9843,.80047719E-3,.12597E-3,0
LEMUR-2-SQUIRRELCOMM,2024-149DQ,2026-06-04T04:12:50.644224,15.06995230,.00066988,97.6703,236.1288,97.2239,262.9750,0,U,60578,999,9844,.55029217E-3,.8183E-4,0
LEMUR-2-SIERRINI,2024-149DR,2026-06-04T04:05:24.617184,15.10659884,.00047235,97.6848,237.7090,205.8108,154.2887,0,U,60579,999,9849,.81518908E-3,.1344E-3,0
LEMUR-2-WILSON,2025-009CP,2026-06-04T04:17:01.113504,14.95111131,.00049525,97.7030,233.8721,85.9541,274.2245,0,U,62694,999,7541,.29758658E-3,.3207E-4,0
